{"fetched_at":"2026-07-11T09:24:36.819Z","source":"https://celestrak.org/NORAD/elements/gp.php?NAME=RCM&FORMAT=JSON","constellation":"rcm","records":[{"OBJECT_NAME":"RCM-1","OBJECT_ID":"2019-033A","EPOCH":"2026-07-11T05:07:28.178976","CLASSIFICATION_TYPE":"U","MEAN_MOTION":14.92590547,"ECCENTRICITY":0.0001535,"INCLINATION":97.7601,"RA_OF_ASC_NODE":199.3205,"ARG_OF_PERICENTER":92.2446,"MEAN_ANOMALY":331.6252,"EPHEMERIS_TYPE":0,"NORAD_CAT_ID":44322,"ELEMENT_SET_NO":999,"REV_AT_EPOCH":38566,"BSTAR":0.000024786,"MEAN_MOTION_DOT":0.00000199,"MEAN_MOTION_DDOT":0},{"OBJECT_NAME":"RCM-3","OBJECT_ID":"2019-033B","EPOCH":"2026-07-11T03:46:24.420576","CLASSIFICATION_TYPE":"U","MEAN_MOTION":14.92588381,"ECCENTRICITY":0.0001502,"INCLINATION":97.7602,"RA_OF_ASC_NODE":199.3595,"ARG_OF_PERICENTER":89.2236,"MEAN_ANOMALY":270.9155,"EPHEMERIS_TYPE":0,"NORAD_CAT_ID":44323,"ELEMENT_SET_NO":999,"REV_AT_EPOCH":38567,"BSTAR":0.0000146,"MEAN_MOTION_DOT":9.4e-7,"MEAN_MOTION_DDOT":0},{"OBJECT_NAME":"RCM-2","OBJECT_ID":"2019-033C","EPOCH":"2026-07-10T21:52:14.248992","CLASSIFICATION_TYPE":"U","MEAN_MOTION":14.92588221,"ECCENTRICITY":0.0001522,"INCLINATION":97.7601,"RA_OF_ASC_NODE":199.0671,"ARG_OF_PERICENTER":91.6069,"MEAN_ANOMALY":268.5325,"EPHEMERIS_TYPE":0,"NORAD_CAT_ID":44324,"ELEMENT_SET_NO":999,"REV_AT_EPOCH":38562,"BSTAR":0.000011665,"MEAN_MOTION_DOT":6.4e-7,"MEAN_MOTION_DDOT":0}]}
