RCM-1                   
1 44322U 19033A   26192.21352059  .00000199  00000+0  24786-4 0  9997
2 44322  97.7601 199.3205 0001535  92.2446 331.6252 14.92590547385663
RCM-3                   
1 44323U 19033B   26192.15722709  .00000094  00000+0  14600-4 0  9992
2 44323  97.7602 199.3595 0001502  89.2236 270.9155 14.92588381385675
RCM-2                   
1 44324U 19033C   26191.91127603  .00000064  00000+0  11665-4 0  9993
2 44324  97.7601 199.0671 0001522  91.6069 268.5325 14.92588221385620
